NORAD_CAT_ID,OBJECT_NAME,OBJECT_TYPE,EPOCH,MEAN_MOTION,ECCENTRICITY,INCLINATION,RA_OF_ASC_NODE,ARG_OF_PERICENTER,MEAN_ANOMALY,BSTAR,MEAN_MOTION_DOT,MEAN_MOTION_DDOT,TLE_LINE0,TLE_LINE1,TLE_LINE2,SEMIMAJOR_AXIS,PERIOD,APOGEE,PERIGEE,DECAYED
56814.0,STARLINK-6059,PAYLOAD,2024-01-02 13:51:38,14.98323663,0.0002989,69.9995,194.1304,270.7247,89.3569,1.9297e-05,1.37e-06,0.0,0 STARLINK-6059,1 56814U 23078AZ  24002.57753309  .00000137  00000-0  19297-4 0  9994,2 56814  69.9995 194.1304 0002989 270.7247  89.3569 14.98323663 33283,6950.212,96.107,574.155,570.0,0.0
56814.0,STARLINK-6059,PAYLOAD,2024-01-02 18:40:03,14.98323371,0.0002981,69.9994,193.6254,269.9158,90.166,1.5151e-05,8.8e-07,0.0,0 STARLINK-6059,1 56814U 23078AZ  24002.77781413  .00000088  00000-0  15151-4 0  9993,2 56814  69.9994 193.6254 0002981 269.9158  90.1660 14.98323371 33573,6950.213,96.107,574.15,570.007,0.0
56814.0,STARLINK-6059,PAYLOAD,2024-01-02 21:52:19,14.98325222,0.0002948,69.9994,193.2888,269.3323,90.7498,3.132e-05,2.81e-06,0.0,0 STARLINK-6059,1 56814U 23078AZ  24002.91133284  .00000281  00000-0  31320-4 0  9997,2 56814  69.9994 193.2888 0002948 269.3323  90.7498 14.98325222 33339,6950.208,96.107,574.122,570.024,0.0
56814.0,STARLINK-6059,PAYLOAD,2024-01-03 13:53:40,14.98322861,0.0002829,69.9993,191.6061,269.5471,90.5364,1.688e-05,1.08e-06,0.0,0 STARLINK-6059,1 56814U 23078AZ  24003.57893723  .00000108  00000-0  16880-4 0  9993,2 56814  69.9993 191.6061 0002829 269.5471  90.5364 14.98322861 33434,6950.215,96.107,574.046,570.114,0.0
56814.0,STARLINK-6059,PAYLOAD,2024-01-03 20:18:12,14.98323327,0.0002877,69.9994,190.9326,269.1651,90.9178,8.2229e-06,5e-08,0.0,0 STARLINK-6059,1 56814U 23078AZ  24003.84597821  .00000005  00000-0  82229-5 0  9990,2 56814  69.9994 190.9326 0002877 269.1651  90.9178 14.98323327 33738,6950.214,96.107,574.078,570.079,0.0
56814.0,STARLINK-6059,PAYLOAD,2024-01-03 21:54:20,14.98323384,0.0002927,69.9993,190.7641,270.707,89.3754,9.8802e-07,-8.1e-07,0.0,0 STARLINK-6059,1 56814U 23078AZ  24003.91273868 -.00000081  00000-0  98802-6 0  9990,2 56814  69.9993 190.7641 0002927 270.7070  89.3754 14.98323384 33481,6950.213,96.107,574.113,570.044,0.0
56814.0,STARLINK-6059,PAYLOAD,2024-01-04 13:55:41,14.98328005,0.0002977,69.9991,189.0805,269.3209,90.7609,1.4964e-05,8.6e-07,0.0,0 STARLINK-6059,1 56814U 23078AZ  24004.58033689  .00000086  00000-0  14964-4 0  9998,2 56814  69.9991 189.0805 0002977 269.3209  90.7609 14.98328005 33586,6950.199,96.107,574.133,569.995,0.0
56814.0,STARLINK-6059,PAYLOAD,2024-01-04 20:20:13,14.98328482,0.0002959,69.9992,188.4074,268.5947,91.4873,2.132e-05,1.61e-06,0.0,0 STARLINK-6059,1 56814U 23078AZ  24004.84737672  .00000161  00000-0  21320-4 0  9998,2 56814  69.9992 188.4074 0002959 268.5947  91.4873 14.98328482 33881,6950.198,96.107,574.119,570.006,0.0
56814.0,STARLINK-6059,PAYLOAD,2024-01-04 21:56:21,14.98328743,0.000296,69.9993,188.2391,268.6283,91.4537,2.3741e-05,1.9e-06,0.0,0 STARLINK-6059,1 56814U 23078AZ  24004.91413656  .00000190  00000-0  23741-4 0  9990,2 56814  69.9993 188.2391 0002960 268.6283  91.4537 14.98328743 33638,6950.197,96.107,574.119,570.005,0.0
56814.0,STARLINK-6059,PAYLOAD,2024-01-05 13:57:42,14.98327092,0.0002974,69.9993,186.5557,269.8236,90.2582,2.892e-05,2.52e-06,0.0,0 STARLINK-6059,1 56814U 23078AZ  24005.58173839  .00000252  00000-0  28920-4 0  9993,2 56814  69.9993 186.5557 0002974 269.8236  90.2582 14.98327092 33733,6950.202,96.107,574.134,570.0,0.0
56814.0,STARLINK-6059,PAYLOAD,2024-01-05 20:22:14,14.98328136,0.0002944,69.9995,185.8827,268.9743,91.1078,4.003e-05,3.85e-06,0.0,0 STARLINK-6059,1 56814U 23078AZ  24005.84877776  .00000385  00000-0  40030-4 0  9996,2 56814  69.9995 185.8827 0002944 268.9743  91.1078 14.98328136 34031,6950.199,96.107,574.11,570.018,0.0
56814.0,STARLINK-6059,PAYLOAD,2024-01-05 21:58:22,14.98328195,0.000295,69.9995,185.7143,269.3813,90.7008,3.9524e-05,3.79e-06,0.0,0 STARLINK-6059,1 56814U 23078AZ  24005.91553782  .00000379  00000-0  39524-4 0  9991,2 56814  69.9995 185.7143 0002950 269.3813  90.7008 14.98328195 33785,6950.198,96.107,574.114,570.013,0.0
56814.0,STARLINK-6059,PAYLOAD,2024-01-06 12:23:34,14.98332752,0.0002969,69.9995,184.1996,269.9436,90.1383,3.3184e-05,3.03e-06,0.0,0 STARLINK-6059,1 56814U 23078AZ  24006.51637486  .00000303  00000-0  33184-4 0  9995,2 56814  69.9995 184.1996 0002969 269.9436  90.1383 14.98332752 33875,6950.184,96.107,574.113,569.986,0.0
56814.0,STARLINK-6059,PAYLOAD,2024-01-06 22:00:23,14.98333712,0.000293,69.9996,183.1896,269.1589,90.9235,4.3567e-05,4.27e-06,0.0,0 STARLINK-6059,1 56814U 23078AZ  24006.91693305  .00000427  00000-0  43567-4 0  9994,2 56814  69.9996 183.1896 0002930 269.1589  90.9235 14.98333712 33931,6950.181,96.107,574.083,570.01,0.0
56814.0,STARLINK-6059,PAYLOAD,2024-01-07 14:01:43,14.98330955,0.0002887,69.9998,181.5066,269.0395,91.0433,1.4461e-05,8e-07,0.0,0 STARLINK-6059,1 56814U 23078AZ  24007.58453443  .00000080  00000-0  14461-4 0  9991,2 56814  69.9998 181.5066 0002887 269.0395  91.0433 14.98330955 34039,6950.19,96.107,574.061,570.048,0.0
56814.0,STARLINK-6059,PAYLOAD,2024-01-07 20:26:16,14.98330374,0.000289,69.9999,180.8335,269.811,90.2718,6.9175e-06,-1e-07,0.0,0 STARLINK-6059,1 56814U 23078AZ  24007.85157477 -.00000010  00000-0  69175-5 0  9996,2 56814  69.9999 180.8335 0002890 269.8110  90.2718 14.98330374 34074,6950.192,96.107,574.065,570.048,0.0
56814.0,STARLINK-6059,PAYLOAD,2024-01-08 14:03:44,14.98332951,0.0002871,70.0001,178.9823,267.6567,92.4263,-1.7569e-05,-3.03e-06,0.0,0 STARLINK-6059,1 56814U 23078AZ  24008.58593231 -.00000303  00000-0 -17569-4 0  9994,2 56814  70.0001 178.9823 0002871 267.6567  92.4263 14.98332951 34186,6950.184,96.107,574.044,570.053,0.0
56814.0,STARLINK-6059,PAYLOAD,2024-01-08 20:28:16,14.98332155,0.0002898,70.0001,178.309,268.5038,91.5789,-2.5274e-05,-3.95e-06,0.0,0 STARLINK-6059,1 56814U 23078AZ  24008.85297254 -.00000395  00000-0 -25274-4 0  9993,2 56814  70.0001 178.3090 0002898 268.5038  91.5789 14.98332155 34222,6950.186,96.107,574.065,570.037,0.0
56814.0,STARLINK-6059,PAYLOAD,2024-01-09 14:05:45,14.98328886,0.0002931,70.0003,176.4577,266.5142,93.5682,-1.4184e-05,-2.62e-06,0.0,0 STARLINK-6059,1 56814U 23078AZ  24009.58733325 -.00000262  00000-0 -14184-4 0  9999,2 56814  70.0003 176.4577 0002931 266.5142  93.5682 14.98328886 34337,6950.196,96.107,574.098,570.024,0.0
56814.0,STARLINK-6059,PAYLOAD,2024-01-09 20:30:17,14.98329305,0.000296,70.0002,175.7843,268.3056,91.7764,-1.1295e-05,-2.28e-06,0.0,0 STARLINK-6059,1 56814U 23078AZ  24009.85437301 -.00000228  00000-0 -11295-4 0  9996,2 56814  70.0002 175.7843 0002960 268.3056  91.7764 14.98329305 34372,6950.195,96.107,574.117,570.003,0.0
56814.0,STARLINK-6059,PAYLOAD,2024-01-10 10:55:30,14.98330561,0.0003045,70.0,174.2694,270.6263,89.4547,-4.6283e-06,-1.48e-06,0.0,0 STARLINK-6059,1 56814U 23078AZ  24010.45521171 -.00000148  00000-0 -46283-5 0  9990,2 56814  70.0000 174.2694 0003045 270.6263  89.4547 14.98330561 34468,6950.191,96.107,574.172,569.94,0.0
56814.0,STARLINK-6059,PAYLOAD,2024-01-10 20:32:18,14.98331625,0.0003047,70.0001,173.2596,269.9979,90.0831,7.3568e-06,-5e-08,0.0,0 STARLINK-6059,1 56814U 23078AZ  24010.85577037 -.00000005  00000-0  73568-5 0  9993,2 56814  70.0001 173.2596 0003047 269.9979  90.0831 14.98331625 34787,6950.188,96.107,574.171,569.935,0.0
56814.0,STARLINK-6059,PAYLOAD,2024-01-11 12:33:37,14.98353808,0.0003321,69.9997,171.5766,271.2765,88.8014,0.00021161,2.434e-05,0.0,0 STARLINK-6059,1 56814U 23078AZ  24011.52334545  .00002434  00000-0  21161-3 0  9990,2 56814  69.9997 171.5766 0003321 271.2765  88.8014 14.98353808 34888,6950.119,96.105,574.292,569.676,0.0
56814.0,STARLINK-6059,PAYLOAD,2024-01-11 14:09:45,14.98349812,0.0002783,70.0022,171.4095,261.1134,98.971,0.00026066,3.02e-05,0.0,0 STARLINK-6059,1 56814U 23078AZ  24011.59010594  .00003020  00000-0  26066-3 0  9993,2 56814  70.0022 171.4095 0002783 261.1134  98.9710 14.98349812 34631,6950.132,96.106,573.931,570.062,0.0
56814.0,STARLINK-6059,PAYLOAD,2024-01-11 18:58:11,14.9832278,0.0003151,69.9995,170.9039,270.4248,89.655,-0.00013749,-1.733e-05,0.0,0 STARLINK-6059,1 56814U 23078AZ  24011.79041321 -.00001733  00000-0 -13749-3 0  9992,2 56814  69.9995 170.9039 0003151 270.4248  89.6550 14.98322780 34924,6950.215,96.107,574.27,569.89,0.0
56814.0,STARLINK-6059,PAYLOAD,2024-01-11 20:34:19,14.98322667,0.0003153,69.9995,170.7355,269.3707,90.709,-0.00013755,-1.734e-05,0.0,0 STARLINK-6059,1 56814U 23078AZ  24011.85717334 -.00001734  00000-0 -13755-3 0  9991,2 56814  69.9995 170.7355 0003153 269.3707  90.7090 14.98322667 34670,6950.216,96.107,574.272,569.889,0.0
56814.0,STARLINK-6059,PAYLOAD,2024-01-12 14:11:48,14.9832184,0.0002979,70.0,168.8834,270.9495,89.1322,-0.00011034,-1.409e-05,0.0,0 STARLINK-6059,1 56814U 23078AZ  24012.59153692 -.00001409  00000-0 -11034-3 0  9991,2 56814  70.0000 168.8834 0002979 270.9495  89.1322 14.98321840 34781,6950.218,96.108,574.154,570.013,0.0
56814.0,STARLINK-6059,PAYLOAD,2024-01-12 19:00:12,14.98323292,0.0002852,70.0003,168.3783,272.4806,87.6026,-8.0419e-05,-1.052e-05,0.0,0 STARLINK-6059,1 56814U 23078AZ  24012.79181628 -.00001052  00000-0 -80419-4 0  9991,2 56814  70.0003 168.3783 0002852 272.4806  87.6026 14.98323292 35075,6950.214,96.107,574.061,570.096,0.0
56814.0,STARLINK-6059,PAYLOAD,2024-01-12 20:36:20,14.98324603,0.0002878,70.0002,168.2102,271.3474,88.7355,-6.7781e-05,-9.02e-06,0.0,0 STARLINK-6059,1 56814U 23078AZ  24012.85857511 -.00000902  00000-0 -67781-4 0  9999,2 56814  70.0002 168.2102 0002878 271.3474  88.7355 14.98324603 34821,6950.21,96.107,574.075,570.074,0.0
56814.0,STARLINK-6059,PAYLOAD,2024-01-13 11:01:33,14.98334776,0.0002778,70.0002,166.6954,273.1757,86.9084,-0.00019393,-2.406e-05,0.0,0 STARLINK-6059,1 56814U 23078AZ  24013.45941240 -.00002406  00000-0 -19393-3 0  9995,2 56814  70.0002 166.6954 0002778 273.1757  86.9084 14.98334776 35171,6950.178,96.107,573.974,570.112,0.0
